[{"OBJECT_NAME":"STARLINK-1559","OBJECT_ID":"2020-055BC","EPOCH":"2026-03-09T05:36:23.522976","MEAN_MOTION":15.29461733,"ECCENTRICITY":0.0004229,"INCLINATION":53.0254,"RA_OF_ASC_NODE":76.0659,"ARG_OF_PERICENTER":33.971,"MEAN_ANOMALY":326.1559,"EPHEMERIS_TYPE":0,"CLASSIFICATION_TYPE":"U","NORAD_CAT_ID":46077,"ELEMENT_SET_NO":999,"REV_AT_EPOCH":30951,"BSTAR":0.0014778793,"MEAN_MOTION_DOT":0.00042685,"MEAN_MOTION_DDOT":0},{"OBJECT_NAME":"STARLINK-31714","OBJECT_ID":"2024-062P","EPOCH":"2026-03-09T22:06:10.654560","MEAN_MOTION":15.30176373,"ECCENTRICITY":0.00017031,"INCLINATION":53.1595,"RA_OF_ASC_NODE":254.8118,"ARG_OF_PERICENTER":103.0264,"MEAN_ANOMALY":257.0927,"EPHEMERIS_TYPE":0,"CLASSIFICATION_TYPE":"U","NORAD_CAT_ID":59387,"ELEMENT_SET_NO":999,"REV_AT_EPOCH":10965,"BSTAR":5.022443e-6,"MEAN_MOTION_DOT":-2.11e-6,"MEAN_MOTION_DDOT":0}]
